{"type": "FeatureCollection", "features": [ {"type": "Feature", "properties": {"norad_id": 34878, "name": "COSMOS 2251 DEB", "group": "cosmos-2251-debris", "lat": -51.86579113253584, "lon": -135.36183449252962, "alt_km": 1295.5477047346849, "timestamp": "2025-12-27T23:26:37.759389+00:00", "meta": {"OBJECT_NAME": "COSMOS 2251 DEB", "OBJECT_ID": "1993-036ACR", "EPOCH": "2025-12-27T08:02:42.263232", "MEAN_MOTION": 13.44210791, "ECCENTRICITY": 0.0435727, "INCLINATION": 73.9646, "RA_OF_ASC_NODE": 24.1669, "ARG_OF_PERICENTER": 4.8421, "MEAN_ANOMALY": 10.2546, "EPHEMERIS_TYPE": 0, "CLASSIFICATION_TYPE": "U", "NORAD_CAT_ID": 34878, "ELEMENT_SET_NO": 999, "REV_AT_EPOCH": 81469, "BSTAR": 0.00082696, "MEAN_MOTION_DOT": 8.28e-06, "MEAN_MOTION_DDOT": 0}, "tle": {"line1": "1 34878U 93036ACR 25361.33521138  .00000828  00000+0  82696-3 0  9995", "line2": "2 34878  73.9646  24.1669 0435727   4.8421  10.2546 13.44210791814690"}}, "geometry": {"type": "Point", "coordinates": [-135.36183449252962, -51.86579113253584]}}, {"type": "Feature", "properties": {"norad_id": 34882, "name": "COSMOS 2251 DEB", "group": "cosmos-2251-debris", "lat": 8.217008427446975, "lon": -161.17215072997715, "alt_km": 650.4517943479805, "timestamp": "2025-12-27T23:26:37.759399+00:00", "meta": {"OBJECT_NAME": "COSMOS 2251 DEB", "OBJECT_ID": "1993-036ACV", "EPOCH": "2025-12-24T14:54:49.727232", "MEAN_MOTION": 14.61616436, "ECCENTRICITY": 0.00833525, "INCLINATION": 74.0451, "RA_OF_ASC_NODE": 202.874, "ARG_OF_PERICENTER": 327.0403, "MEAN_ANOMALY": 32.5581, "EPHEMERIS_TYPE": 0, "CLASSIFICATION_TYPE": "U", "NORAD_CAT_ID": 34882, "ELEMENT_SET_NO": 999, "REV_AT_EPOCH": 88698, "BSTAR": 0.00012189648, "MEAN_MOTION_DOT": 6.03e-06, "MEAN_MOTION_DDOT": 0}, "tle": {"line1": "1 34882U 93036ACV 25358.62140888  .00000603  00000+0  12190-3 0  9990", "line2": "2 34882  74.0451 202.8740 0083352 327.0403  32.5581 14.61616436886982"}}, "geometry": {"type": "Point", "coordinates": [-161.17215072997715, 8.217008427446975]}}, {"type": "Feature", "properties": {"norad_id": 34883, "name": "COSMOS 2251 DEB", "group": "cosmos-2251-debris", "lat": -50.50483519934631, "lon": -125.6003863280895, "alt_km": 661.9639920055351, "timestamp": "2025-12-27T23:26:37.759409+00:00", "meta": {"OBJECT_NAME": "COSMOS 2251 DEB", "OBJECT_ID": "1993-036ACW", "EPOCH": "2025-12-27T10:47:44.568960", "MEAN_MOTION": 14.519195, "ECCENTRICITY": 0.0094026, "INCLINATION": 74.2008, "RA_OF_ASC_NODE": 35.2895, "ARG_OF_PERICENTER": 217.5903, "MEAN_ANOMALY": 141.8664, "EPHEMERIS_TYPE": 0, "CLASSIFICATION_TYPE": "U", "NORAD_CAT_ID": 34883, "ELEMENT_SET_NO": 999, "REV_AT_EPOCH": 86653, "BSTAR": 0.003398, "MEAN_MOTION_DOT": 0.0001452, "MEAN_MOTION_DDOT": 0}, "tle": {"line1": "1 34883U 93036ACW 25361.44982140  .00014520  00000+0  33980-2 0  9992", "line2": "2 34883  74.2008  35.2895 0094026 217.5903 141.8664 14.51919500866532"}}, "geometry": {"type": "Point", "coordinates": [-125.6003863280895, -50.50483519934631]}}, {"type": "Feature", "properties": {"norad_id": 34884, "name": "COSMOS 2251 DEB", "group": "cosmos-2251-debris", "lat": 49.91219508730697, "lon": -173.70970786790335, "alt_km": 591.1942259836051, "timestamp": "2025-12-27T23:26:37.759419+00:00", "meta": {"OBJECT_NAME": "COSMOS 2251 DEB", "OBJECT_ID": "1993-036ACX", "EPOCH": "2025-12-27T12:07:42.723840", "MEAN_MOTION": 14.90741411, "ECCENTRICITY": 0.0003391, "INCLINATION": 74.0174, "RA_OF_ASC_NODE": 27.1433, "ARG_OF_PERICENTER": 25.0058, "MEAN_ANOMALY": 92.9751, "EPHEMERIS_TYPE": 0, "CLASSIFICATION_TYPE": "U", "NORAD_CAT_ID": 34884, "ELEMENT_SET_NO": 999, "REV_AT_EPOCH": 88025, "BSTAR": 0.0027671, "MEAN_MOTION_DOT": 0.00027262, "MEAN_MOTION_DDOT": 0}, "tle": {"line1": "1 34884U 93036ACX 25361.50535560  .00027262  00000+0  27671-2 0  9997", "line2": "2 34884  74.0174  27.1433 0003391  25.0058  92.9751 14.90741411880256"}}, "geometry": {"type": "Point", "coordinates": [-173.70970786790335, 49.91219508730697]}}, {"type": "Feature", "properties": {"norad_id": 34885, "name": "COSMOS 2251 DEB", "group": "cosmos-2251-debris", "lat": 41.43655081632721, "lon": 168.9732149079214, "alt_km": 727.020666637527, "timestamp": "2025-12-27T23:26:37.759430+00:00", "meta": {"OBJECT_NAME": "COSMOS 2251 DEB", "OBJECT_ID": "1993-036ACY", "EPOCH": "2025-12-27T11:55:35.532192", "MEAN_MOTION": 14.51586393, "ECCENTRICITY": 0.0015038, "INCLINATION": 74.0298, "RA_OF_ASC_NODE": 155.2337, "ARG_OF_PERICENTER": 241.0616, "MEAN_ANOMALY": 175.7402, "EPHEMERIS_TYPE": 0, "CLASSIFICATION_TYPE": "U", "NORAD_CAT_ID": 34885, "ELEMENT_SET_NO": 999, "REV_AT_EPOCH": 87693, "BSTAR": 0.0009219, "MEAN_MOTION_DOT": 3.671e-05, "MEAN_MOTION_DDOT": 0}, "tle": {"line1": "1 34885U 93036ACY 25361.49693903  .00003671  00000+0  92190-3 0  9999", "line2": "2 34885  74.0298 155.2337 0015038 241.0616 175.7402 14.51586393876937"}}, "geometry": {"type": "Point", "coordinates": [168.9732149079214, 41.43655081632721]}}, {"type": "Feature", "properties": {"norad_id": 34886, "name": "COSMOS 2251 DEB", "group": "cosmos-2251-debris", "lat": -73.28048972939624, "lon": 74.51413048562574, "alt_km": 438.19597136356606, "timestamp": "2025-12-27T23:26:37.759440+00:00", "meta": {"OBJECT_NAME": "COSMOS 2251 DEB", "OBJECT_ID": "1993-036ACZ", "EPOCH": "2025-12-26T18:12:01.173888", "MEAN_MOTION": 15.40542585, "ECCENTRICITY": 0.00320594, "INCLINATION": 73.9515, "RA_OF_ASC_NODE": 150.562, "ARG_OF_PERICENTER": 332.3272, "MEAN_ANOMALY": 27.6228, "EPHEMERIS_TYPE": 0, "CLASSIFICATION_TYPE": "U", "NORAD_CAT_ID": 34886, "ELEMENT_SET_NO": 999, "REV_AT_EPOCH": 63214, "BSTAR": 0.0018575938, "MEAN_MOTION_DOT": 0.00077584, "MEAN_MOTION_DDOT": 0}, "tle": {"line1": "1 34886U 93036ACZ 25360.75834692  .00077584  00000+0  18576-2 0  9999", "line2": "2 34886  73.9515 150.5620 0032059 332.3272  27.6228 15.40542585632143"}}, "geometry": {"type": "Point", "coordinates": [74.51413048562574, -73.28048972939624]}}, {"type": "Feature", "properties": {"norad_id": 34907, "name": "COSMOS 2251 DEB", "group": "cosmos-2251-debris", "lat": 35.52479769908185, "lon": 26.703935931383203, "alt_km": 392.48789056851456, "timestamp": "2025-12-27T23:26:37.759450+00:00", "meta": {"OBJECT_NAME": "COSMOS 2251 DEB", "OBJECT_ID": "1993-036ADC", "EPOCH": "2025-12-26T00:59:09.943584", "MEAN_MOTION": 15.54798885, "ECCENTRICITY": 0.00149707, "INCLINATION": 73.9657, "RA_OF_ASC_NODE": 19.1552, "ARG_OF_PERICENTER": 322.4289, "MEAN_ANOMALY": 37.5879, "EPHEMERIS_TYPE": 0, "CLASSIFICATION_TYPE": "U", "NORAD_CAT_ID": 34907, "ELEMENT_SET_NO": 999, "REV_AT_EPOCH": 88179, "BSTAR": 0.0076188915, "MEAN_MOTION_DOT": 0.0054544, "MEAN_MOTION_DDOT": 0}, "tle": {"line1": "1 34907U 93036ADC 25360.04108731  .00545440  00000+0  76189-2 0  9998", "line2": "2 34907  73.9657  19.1552 0014970 322.4289  37.5879 15.54798885881798"}}, "geometry": {"type": "Point", "coordinates": [26.703935931383203, 35.52479769908185]}}, {"type": "Feature", "properties": {"norad_id": 34908, "name": "COSMOS 2251 DEB", "group": "cosmos-2251-debris", "lat": 48.55358307032243, "lon": 14.541774638905077, "alt_km": 741.1586392693707, "timestamp": "2025-12-27T23:26:37.759460+00:00", "meta": {"OBJECT_NAME": "COSMOS 2251 DEB", "OBJECT_ID": "1993-036ADD", "EPOCH": "2025-12-27T08:28:39.154080", "MEAN_MOTION": 14.37446853, "ECCENTRICITY": 0.0040807, "INCLINATION": 74.0579, "RA_OF_ASC_NODE": 356.8011, "ARG_OF_PERICENTER": 8.6571, "MEAN_ANOMALY": 56.6234, "EPHEMERIS_TYPE": 0, "CLASSIFICATION_TYPE": "U", "NORAD_CAT_ID": 34908, "ELEMENT_SET_NO": 999, "REV_AT_EPOCH": 87489, "BSTAR": 0.00070096, "MEAN_MOTION_DOT": 2.091e-05, "MEAN_MOTION_DDOT": 0}, "tle": {"line1": "1 34908U 93036ADD 25361.35323095  .00002091  00000+0  70096-3 0  9998", "line2": "2 34908  74.0579 356.8011 0040807   8.6571  56.6234 14.37446853874895"}}, "geometry": {"type": "Point", "coordinates": [14.541774638905077, 48.55358307032243]}}, {"type": "Feature", "properties": {"norad_id": 34909, "name": "COSMOS 2251 DEB", "group": "cosmos-2251-debris", "lat": -59.47476598142128, "lon": -104.29450793111997, "alt_km": 617.2323585587283, "timestamp": "2025-12-27T23:26:37.759470+00:00", "meta": {"OBJECT_NAME": "COSMOS 2251 DEB", "OBJECT_ID": "1993-036ADE", "EPOCH": "2025-12-25T19:59:15.179712", "MEAN_MOTION": 14.7793658, "ECCENTRICITY": 0.00836064, "INCLINATION": 74.014, "RA_OF_ASC_NODE": 50.8291, "ARG_OF_PERICENTER": 183.5214, "MEAN_ANOMALY": 176.5384, "EPHEMERIS_TYPE": 0, "CLASSIFICATION_TYPE": "U", "NORAD_CAT_ID": 34909, "ELEMENT_SET_NO": 999, "REV_AT_EPOCH": 67045, "BSTAR": 0.0004989948, "MEAN_MOTION_DOT": 3.776e-05, "MEAN_MOTION_DDOT": 0}, "tle": {"line1": "1 34909U 93036ADE 25359.83281458  .00003776  00000+0  49899-3 0  9993", "line2": "2 34909  74.0140  50.8291 0083606 183.5214 176.5384 14.77936580670451"}}, "geometry": {"type": "Point", "coordinates": [-104.29450793111997, -59.47476598142128]}}, {"type": "Feature", "properties": {"norad_id": 34910, "name": "COSMOS 2251 DEB", "group": "cosmos-2251-debris", "lat": 66.15285433848143, "lon": 118.25140456350259, "alt_km": 1282.5122277077453, "timestamp": "2025-12-27T23:26:37.759480+00:00", "meta": {"OBJECT_NAME": "COSMOS 2251 DEB", "OBJECT_ID": "1993-036ADF", "EPOCH": "2025-12-26T22:31:54.181056", "MEAN_MOTION": 13.37716569, "ECCENTRICITY": 0.0467609, "INCLINATION": 73.8764, "RA_OF_ASC_NODE": 79.0174, "ARG_OF_PERICENTER": 195.6498, "MEAN_ANOMALY": 284.2366, "EPHEMERIS_TYPE": 0, "CLASSIFICATION_TYPE": "U", "NORAD_CAT_ID": 34910, "ELEMENT_SET_NO": 999, "REV_AT_EPOCH": 81714, "BSTAR": 0.0012684, "MEAN_MOTION_DOT": 1.233e-05, "MEAN_MOTION_DDOT": 0}, "tle": {"line1": "1 34910U 93036ADF 25360.93882154  .00001233  00000+0  12684-2 0  9995", "line2": "2 34910  73.8764  79.0174 0467609 195.6498 284.2366 13.37716569817146"}}, "geometry": {"type": "Point", "coordinates": [118.25140456350259, 66.15285433848143]}}]}